ONEWEB-0588             
1 55153U 23004P   26188.36726045  .00000013  00000+0 -73047-6 0  9997
2 55153  87.9180 331.4540 0002267  87.3965 272.7426 13.18685990172357
ONEWEB-0598             
1 55154U 23004Q   26188.45520398  .00000078  00000+0  18307-3 0  9996
2 55154  87.8879  17.0324 0002363 103.8441 256.2950 13.11414255168552
ONEWEB-0599             
1 55155U 23004R   26188.45173519  .00000008  00000+0 -11904-4 0  9997
2 55155  87.9137   1.8318 0001785  97.8734 262.2601 13.17649601170159
ONEWEB-0614             
1 55156U 23004S   26188.75530559  .00000343  00000+0  93137-3 0  9990
2 55156  87.8875  16.9808 0001872  83.5339 276.6002 13.11414524168530
ONEWEB-0616             
1 55157U 23004T   26188.41798626  .00000053  00000+0  10251-3 0  9999
2 55157  87.9139   1.8424 0001395 121.0198 239.1071 13.17650356170368
ONEWEB-0617             
1 55158U 23004U   26187.90417664  .00000549  00000+0  15136-2 0  9999
2 55158  87.8883  17.1426 0002091  79.9884 280.1480 13.11416547168445
ONEWEB-0618             
1 55159U 23004V   26188.22813080  .00003919  00000+0  21796-3 0  9992
2 55159  86.9099 169.4967 0011002 205.6608 154.4088 15.13327062185296
ONEWEB-0619             
1 55160U 23004W   26188.75379334  .00000118  00000+0  27126-3 0  9992
2 55160  87.9150   1.7583 0001566  82.7626 277.3684 13.17649979170306
ONEWEB-0620             
1 55161U 23004X   26187.97538576  .00000560  00000+0  15451-2 0  9999
2 55161  87.8876  17.1360 0002107  91.3252 268.8117 13.11416838168424
ONEWEB-0621             
1 55162U 23004Y   26188.76547384 -.00000084  00000+0 -27327-3 0  9994
2 55162  87.8886  16.9692 0001832  83.4069 276.7267 13.11414423168504
ONEWEB-0622             
1 55163U 23004Z   26188.46537206 -.00000360  00000+0 -10529-2 0  9996
2 55163  87.8889  17.0317 0002393  76.9531 283.1864 13.11414996168452
ONEWEB-0623             
1 55164U 23004AA  26187.91342459  .00000076  00000+0  16300-3 0  9996
2 55164  87.9135   1.9533 0001989  67.5462 292.5880 13.17647744170189
ONEWEB-0624             
1 55165U 23004AB  26188.39026943 -.00000320  00000+0 -91843-3 0  9996
2 55165  87.8959 346.5639 0001796  90.2466 269.8869 13.12928853170723
ONEWEB-0625             
1 55166U 23004AC  26188.43486062  .00000039  00000+0  67338-4 0  9992
2 55166  87.9138   1.8457 0001721  94.1596 265.9732 13.17650280170242
ONEWEB-0626             
1 55167U 23004AD  26188.42475450  .00000356  00000+0  88379-3 0  9990
2 55167  87.9132   1.8466 0002100  99.4163 260.7206 13.17648143170241
ONEWEB-0627             
1 55168U 23004AE  26188.41292265  .00000072  00000+0  15204-3 0  9993
2 55168  87.9138   1.8498 0001883  77.0895 283.0447 13.17647934170246
