{"fetched_at":"2026-07-08T07:03:34.892Z","source":"https://celestrak.org/NORAD/elements/gp.php?GROUP=oneweb&FORMAT=JSON","constellation":"oneweb","records":[{"OBJECT_NAME":"ONEWEB-0588","OBJECT_ID":"2023-004P","EPOCH":"2026-07-07T08:48:51.302880","CLASSIFICATION_TYPE":"U","MEAN_MOTION":13.1868599,"ECCENTRICITY":0.00022671,"INCLINATION":87.918,"RA_OF_ASC_NODE":331.454,"ARG_OF_PERICENTER":87.3965,"MEAN_ANOMALY":272.7426,"EPHEMERIS_TYPE":0,"NORAD_CAT_ID":55153,"ELEMENT_SET_NO":999,"REV_AT_EPOCH":17235,"BSTAR":-7.30467e-7,"MEAN_MOTION_DOT":1.3e-7,"MEAN_MOTION_DDOT":0},{"OBJECT_NAME":"ONEWEB-0598","OBJECT_ID":"2023-004Q","EPOCH":"2026-07-07T10:55:29.623872","CLASSIFICATION_TYPE":"U","MEAN_MOTION":13.11414255,"ECCENTRICITY":0.0002363,"INCLINATION":87.8879,"RA_OF_ASC_NODE":17.0324,"ARG_OF_PERICENTER":103.8441,"MEAN_ANOMALY":256.295,"EPHEMERIS_TYPE":0,"NORAD_CAT_ID":55154,"ELEMENT_SET_NO":999,"REV_AT_EPOCH":16855,"BSTAR":0.00018306708,"MEAN_MOTION_DOT":7.8e-7,"MEAN_MOTION_DDOT":0},{"OBJECT_NAME":"ONEWEB-0599","OBJECT_ID":"2023-004R","EPOCH":"2026-07-07T10:50:29.920416","CLASSIFICATION_TYPE":"U","MEAN_MOTION":13.17649601,"ECCENTRICITY":0.00017852,"INCLINATION":87.9137,"RA_OF_ASC_NODE":1.8318,"ARG_OF_PERICENTER":97.8734,"MEAN_ANOMALY":262.2601,"EPHEMERIS_TYPE":0,"NORAD_CAT_ID":55155,"ELEMENT_SET_NO":999,"REV_AT_EPOCH":17015,"BSTAR":-0.000011903893,"MEAN_MOTION_DOT":8e-8,"MEAN_MOTION_DDOT":0},{"OBJECT_NAME":"ONEWEB-0614","OBJECT_ID":"2023-004S","EPOCH":"2026-07-07T18:07:38.402976","CLASSIFICATION_TYPE":"U","MEAN_MOTION":13.11414524,"ECCENTRICITY":0.0001872,"INCLINATION":87.8875,"RA_OF_ASC_NODE":16.9808,"ARG_OF_PERICENTER":83.5339,"MEAN_ANOMALY":276.6002,"EPHEMERIS_TYPE":0,"NORAD_CAT_ID":55156,"ELEMENT_SET_NO":999,"REV_AT_EPOCH":16853,"BSTAR":0.00093137,"MEAN_MOTION_DOT":0.00000343,"MEAN_MOTION_DDOT":0},{"OBJECT_NAME":"ONEWEB-0616","OBJECT_ID":"2023-004T","EPOCH":"2026-07-07T10:01:54.012864","CLASSIFICATION_TYPE":"U","MEAN_MOTION":13.17650356,"ECCENTRICITY":0.00013959,"INCLINATION":87.9139,"RA_OF_ASC_NODE":1.8424,"ARG_OF_PERICENTER":121.0198,"MEAN_ANOMALY":239.1071,"EPHEMERIS_TYPE":0,"NORAD_CAT_ID":55157,"ELEMENT_SET_NO":999,"REV_AT_EPOCH":17036,"BSTAR":0.00010251234,"MEAN_MOTION_DOT":5.3e-7,"MEAN_MOTION_DDOT":0},{"OBJECT_NAME":"ONEWEB-0617","OBJECT_ID":"2023-004U","EPOCH":"2026-07-06T21:42:00.861696","CLASSIFICATION_TYPE":"U","MEAN_MOTION":13.11416547,"ECCENTRICITY":0.00020919,"INCLINATION":87.8883,"RA_OF_ASC_NODE":17.1426,"ARG_OF_PERICENTER":79.9884,"MEAN_ANOMALY":280.148,"EPHEMERIS_TYPE":0,"NORAD_CAT_ID":55158,"ELEMENT_SET_NO":999,"REV_AT_EPOCH":16844,"BSTAR":0.0015135644,"MEAN_MOTION_DOT":0.00000549,"MEAN_MOTION_DDOT":0},{"OBJECT_NAME":"ONEWEB-0618","OBJECT_ID":"2023-004V","EPOCH":"2026-07-07T05:28:30.501120","CLASSIFICATION_TYPE":"U","MEAN_MOTION":15.13327062,"ECCENTRICITY":0.00110025,"INCLINATION":86.9099,"RA_OF_ASC_NODE":169.4967,"ARG_OF_PERICENTER":205.6608,"MEAN_ANOMALY":154.4088,"EPHEMERIS_TYPE":0,"NORAD_CAT_ID":55159,"ELEMENT_SET_NO":999,"REV_AT_EPOCH":18529,"BSTAR":0.00021795827,"MEAN_MOTION_DOT":0.00003919,"MEAN_MOTION_DDOT":0},{"OBJECT_NAME":"ONEWEB-0619","OBJECT_ID":"2023-004W","EPOCH":"2026-07-07T18:05:27.744576","CLASSIFICATION_TYPE":"U","MEAN_MOTION":13.17649979,"ECCENTRICITY":0.0001566,"INCLINATION":87.915,"RA_OF_ASC_NODE":1.7583,"ARG_OF_PERICENTER":82.7626,"MEAN_ANOMALY":277.3684,"EPHEMERIS_TYPE":0,"NORAD_CAT_ID":55160,"ELEMENT_SET_NO":999,"REV_AT_EPOCH":17030,"BSTAR":0.00027126,"MEAN_MOTION_DOT":0.00000118,"MEAN_MOTION_DDOT":0},{"OBJECT_NAME":"ONEWEB-0620","OBJECT_ID":"2023-004X","EPOCH":"2026-07-06T23:24:33.329664","CLASSIFICATION_TYPE":"U","MEAN_MOTION":13.11416838,"ECCENTRICITY":0.00021071,"INCLINATION":87.8876,"RA_OF_ASC_NODE":17.136,"ARG_OF_PERICENTER":91.3252,"MEAN_ANOMALY":268.8117,"EPHEMERIS_TYPE":0,"NORAD_CAT_ID":55161,"ELEMENT_SET_NO":999,"REV_AT_EPOCH":16842,"BSTAR":0.0015451176,"MEAN_MOTION_DOT":0.0000056,"MEAN_MOTION_DDOT":0},{"OBJECT_NAME":"ONEWEB-0621","OBJECT_ID":"2023-004Y","EPOCH":"2026-07-07T18:22:16.939776","CLASSIFICATION_TYPE":"U","MEAN_MOTION":13.11414423,"ECCENTRICITY":0.0001832,"INCLINATION":87.8886,"RA_OF_ASC_NODE":16.9692,"ARG_OF_PERICENTER":83.4069,"MEAN_ANOMALY":276.7267,"EPHEMERIS_TYPE":0,"NORAD_CAT_ID":55162,"ELEMENT_SET_NO":999,"REV_AT_EPOCH":16850,"BSTAR":-0.00027327,"MEAN_MOTION_DOT":-8.4e-7,"MEAN_MOTION_DDOT":0},{"OBJECT_NAME":"ONEWEB-0622","OBJECT_ID":"2023-004Z","EPOCH":"2026-07-07T11:10:08.145984","CLASSIFICATION_TYPE":"U","MEAN_MOTION":13.11414996,"ECCENTRICITY":0.00023934,"INCLINATION":87.8889,"RA_OF_ASC_NODE":17.0317,"ARG_OF_PERICENTER":76.9531,"MEAN_ANOMALY":283.1864,"EPHEMERIS_TYPE":0,"NORAD_CAT_ID":55163,"ELEMENT_SET_NO":999,"REV_AT_EPOCH":16845,"BSTAR":-0.0010528895,"MEAN_MOTION_DOT":-0.0000036,"MEAN_MOTION_DDOT":0},{"OBJECT_NAME":"ONEWEB-0623","OBJECT_ID":"2023-004AA","EPOCH":"2026-07-06T21:55:19.884576","CLASSIFICATION_TYPE":"U","MEAN_MOTION":13.17647744,"ECCENTRICITY":0.0001989,"INCLINATION":87.9135,"RA_OF_ASC_NODE":1.9533,"ARG_OF_PERICENTER":67.5462,"MEAN_ANOMALY":292.588,"EPHEMERIS_TYPE":0,"NORAD_CAT_ID":55164,"ELEMENT_SET_NO":999,"REV_AT_EPOCH":17018,"BSTAR":0.00016300308,"MEAN_MOTION_DOT":7.6e-7,"MEAN_MOTION_DDOT":0},{"OBJECT_NAME":"ONEWEB-0624","OBJECT_ID":"2023-004AB","EPOCH":"2026-07-07T09:21:59.278752","CLASSIFICATION_TYPE":"U","MEAN_MOTION":13.12928853,"ECCENTRICITY":0.0001796,"INCLINATION":87.8959,"RA_OF_ASC_NODE":346.5639,"ARG_OF_PERICENTER":90.2466,"MEAN_ANOMALY":269.8869,"EPHEMERIS_TYPE":0,"NORAD_CAT_ID":55165,"ELEMENT_SET_NO":999,"REV_AT_EPOCH":17072,"BSTAR":-0.00091843353,"MEAN_MOTION_DOT":-0.0000032,"MEAN_MOTION_DDOT":0},{"OBJECT_NAME":"ONEWEB-0625","OBJECT_ID":"2023-004AC","EPOCH":"2026-07-07T10:26:11.957568","CLASSIFICATION_TYPE":"U","MEAN_MOTION":13.1765028,"ECCENTRICITY":0.00017212,"INCLINATION":87.9138,"RA_OF_ASC_NODE":1.8457,"ARG_OF_PERICENTER":94.1596,"MEAN_ANOMALY":265.9732,"EPHEMERIS_TYPE":0,"NORAD_CAT_ID":55166,"ELEMENT_SET_NO":999,"REV_AT_EPOCH":17024,"BSTAR":0.000067338435,"MEAN_MOTION_DOT":3.9e-7,"MEAN_MOTION_DDOT":0},{"OBJECT_NAME":"ONEWEB-0626","OBJECT_ID":"2023-004AD","EPOCH":"2026-07-07T10:11:38.788800","CLASSIFICATION_TYPE":"U","MEAN_MOTION":13.17648143,"ECCENTRICITY":0.00021009,"INCLINATION":87.9132,"RA_OF_ASC_NODE":1.8466,"ARG_OF_PERICENTER":99.4163,"MEAN_ANOMALY":260.7206,"EPHEMERIS_TYPE":0,"NORAD_CAT_ID":55167,"ELEMENT_SET_NO":999,"REV_AT_EPOCH":17024,"BSTAR":0.00088378947,"MEAN_MOTION_DOT":0.00000356,"MEAN_MOTION_DDOT":0},{"OBJECT_NAME":"ONEWEB-0627","OBJECT_ID":"2023-004AE","EPOCH":"2026-07-07T09:54:36.516960","CLASSIFICATION_TYPE":"U","MEAN_MOTION":13.17647934,"ECCENTRICITY":0.0001883,"INCLINATION":87.9138,"RA_OF_ASC_NODE":1.8498,"ARG_OF_PERICENTER":77.0895,"MEAN_ANOMALY":283.0447,"EPHEMERIS_TYPE":0,"NORAD_CAT_ID":55168,"ELEMENT_SET_NO":999,"REV_AT_EPOCH":17024,"BSTAR":0.00015204492,"MEAN_MOTION_DOT":7.2e-7,"MEAN_MOTION_DDOT":0}]}
